{"type": "FeatureCollection", "features": [ {"type": "Feature", "properties": {"norad_id": 35829, "name": "COSMOS 2251 DEB", "group": "cosmos-2251-debris", "lat": 4.288156533986443, "lon": 97.10765869063121, "alt_km": 647.013253719997, "timestamp": "2025-12-14T05:42:18.859433+00:00", "meta": {"OBJECT_NAME": "COSMOS 2251 DEB", "OBJECT_ID": "1993-036ATB", "EPOCH": "2025-12-08T14:41:25.732032", "MEAN_MOTION": 14.76103447, "ECCENTRICITY": 0.0006283, "INCLINATION": 74.0249, "RA_OF_ASC_NODE": 106.8945, "ARG_OF_PERICENTER": 174.4564, "MEAN_ANOMALY": 185.6681, "EPHEMERIS_TYPE": 0, "CLASSIFICATION_TYPE": "U", "NORAD_CAT_ID": 35829, "ELEMENT_SET_NO": 999, "REV_AT_EPOCH": 87714, "BSTAR": 0.0032694, "MEAN_MOTION_DOT": 0.0002262, "MEAN_MOTION_DDOT": 0}, "tle": {"line1": "1 35829U 93036ATB 25342.61210338  .00022620  00000+0  32694-2 0  9995", "line2": "2 35829  74.0249 106.8945 0006283 174.4564 185.6681 14.76103447877147"}}, "geometry": {"type": "Point", "coordinates": [97.10765869063121, 4.288156533986443]}}, {"type": "Feature", "properties": {"norad_id": 35830, "name": "COSMOS 2251 DEB", "group": "cosmos-2251-debris", "lat": 24.732815562116073, "lon": -88.62156204991511, "alt_km": 889.8241674397814, "timestamp": "2025-12-14T05:42:18.859443+00:00", "meta": {"OBJECT_NAME": "COSMOS 2251 DEB", "OBJECT_ID": "1993-036ATC", "EPOCH": "2025-12-06T12:06:38.215008", "MEAN_MOTION": 14.23927917, "ECCENTRICITY": 0.01224789, "INCLINATION": 73.8624, "RA_OF_ASC_NODE": 277.7805, "ARG_OF_PERICENTER": 247.2482, "MEAN_ANOMALY": 111.5683, "EPHEMERIS_TYPE": 0, "CLASSIFICATION_TYPE": "U", "NORAD_CAT_ID": 35830, "ELEMENT_SET_NO": 999, "REV_AT_EPOCH": 61175, "BSTAR": 0.0019622096, "MEAN_MOTION_DOT": 4.837e-05, "MEAN_MOTION_DDOT": 0}, "tle": {"line1": "1 35830U 93036ATC 25340.50460897  .00004837  00000+0  19622-2 0  9996", "line2": "2 35830  73.8624 277.7805 0122478 247.2482 111.5683 14.23927917611750"}}, "geometry": {"type": "Point", "coordinates": [-88.62156204991511, 24.732815562116073]}}, {"type": "Feature", "properties": {"norad_id": 35834, "name": "COSMOS 2251 DEB", "group": "cosmos-2251-debris", "lat": 13.797003857873696, "lon": 117.81694372394658, "alt_km": 814.1633131301087, "timestamp": "2025-12-14T05:42:18.859454+00:00", "meta": {"OBJECT_NAME": "COSMOS 2251 DEB", "OBJECT_ID": "1993-036ATG", "EPOCH": "2025-12-12T20:47:15.272736", "MEAN_MOTION": 14.12979936, "ECCENTRICITY": 0.01092598, "INCLINATION": 73.9317, "RA_OF_ASC_NODE": 304.3154, "ARG_OF_PERICENTER": 104.5119, "MEAN_ANOMALY": 285.8109, "EPHEMERIS_TYPE": 0, "CLASSIFICATION_TYPE": "U", "NORAD_CAT_ID": 35834, "ELEMENT_SET_NO": 999, "REV_AT_EPOCH": 66265, "BSTAR": 0.00043494397, "MEAN_MOTION_DOT": 8.33e-06, "MEAN_MOTION_DDOT": 0}, "tle": {"line1": "1 35834U 93036ATG 25346.86614899  .00000833  00000+0  43494-3 0  9995", "line2": "2 35834  73.9317 304.3154 0109259 104.5119 285.8109 14.12979936662651"}}, "geometry": {"type": "Point", "coordinates": [117.81694372394658, 13.797003857873696]}}, {"type": "Feature", "properties": {"norad_id": 35835, "name": "COSMOS 2251 DEB", "group": "cosmos-2251-debris", "lat": -60.721279747322754, "lon": -124.71819211537824, "alt_km": 1035.5680833964025, "timestamp": "2025-12-14T05:42:18.859465+00:00", "meta": {"OBJECT_NAME": "COSMOS 2251 DEB", "OBJECT_ID": "1993-036ATH", "EPOCH": "2025-12-11T12:02:32.949600", "MEAN_MOTION": 13.82870055, "ECCENTRICITY": 0.02901062, "INCLINATION": 74.0631, "RA_OF_ASC_NODE": 270.5178, "ARG_OF_PERICENTER": 52.3891, "MEAN_ANOMALY": 310.3189, "EPHEMERIS_TYPE": 0, "CLASSIFICATION_TYPE": "U", "NORAD_CAT_ID": 35835, "ELEMENT_SET_NO": 999, "REV_AT_EPOCH": 61682, "BSTAR": 0.0024457377, "MEAN_MOTION_DOT": 3.663e-05, "MEAN_MOTION_DDOT": 0}, "tle": {"line1": "1 35835U 93036ATH 25345.50177025  .00003663  00000+0  24457-2 0  9992", "line2": "2 35835  74.0631 270.5178 0290106  52.3891 310.3189 13.82870055616820"}}, "geometry": {"type": "Point", "coordinates": [-124.71819211537824, -60.721279747322754]}}, {"type": "Feature", "properties": {"norad_id": 35836, "name": "COSMOS 2251 DEB", "group": "cosmos-2251-debris", "lat": -73.99454266194469, "lon": 83.4391604576295, "alt_km": 652.2333145889879, "timestamp": "2025-12-14T05:42:18.859475+00:00", "meta": {"OBJECT_NAME": "COSMOS 2251 DEB", "OBJECT_ID": "1993-036ATJ", "EPOCH": "2025-12-13T12:09:18.632160", "MEAN_MOTION": 14.70999722, "ECCENTRICITY": 0.00241495, "INCLINATION": 74.0316, "RA_OF_ASC_NODE": 171.4459, "ARG_OF_PERICENTER": 229.8906, "MEAN_ANOMALY": 130.015, "EPHEMERIS_TYPE": 0, "CLASSIFICATION_TYPE": "U", "NORAD_CAT_ID": 35836, "ELEMENT_SET_NO": 999, "REV_AT_EPOCH": 63531, "BSTAR": 0.003104343, "MEAN_MOTION_DOT": 0.00019156, "MEAN_MOTION_DDOT": 0}, "tle": {"line1": "1 35836U 93036ATJ 25347.50646565  .00019156  00000+0  31043-2 0  9998", "line2": "2 35836  74.0316 171.4459 0024149 229.8906 130.0150 14.70999722635313"}}, "geometry": {"type": "Point", "coordinates": [83.4391604576295, -73.99454266194469]}}, {"type": "Feature", "properties": {"norad_id": 35837, "name": "COSMOS 2251 DEB", "group": "cosmos-2251-debris", "lat": -25.188024682478645, "lon": -162.76184308179248, "alt_km": 1301.0000755719293, "timestamp": "2025-12-14T05:42:18.859486+00:00", "meta": {"OBJECT_NAME": "COSMOS 2251 DEB", "OBJECT_ID": "1993-036ATK", "EPOCH": "2025-12-09T22:01:37.127712", "MEAN_MOTION": 13.63437069, "ECCENTRICITY": 0.04220669, "INCLINATION": 73.7216, "RA_OF_ASC_NODE": 212.3216, "ARG_OF_PERICENTER": 133.5531, "MEAN_ANOMALY": 246.304, "EPHEMERIS_TYPE": 0, "CLASSIFICATION_TYPE": "U", "NORAD_CAT_ID": 35837, "ELEMENT_SET_NO": 999, "REV_AT_EPOCH": 57938, "BSTAR": 0.0025074688, "MEAN_MOTION_DOT": 3.597e-05, "MEAN_MOTION_DDOT": 0}, "tle": {"line1": "1 35837U 93036ATK 25343.91779083  .00003597  00000+0  25075-2 0  9992", "line2": "2 35837  73.7216 212.3216 0422066 133.5531 246.3040 13.63437069579385"}}, "geometry": {"type": "Point", "coordinates": [-162.76184308179248, -25.188024682478645]}}, {"type": "Feature", "properties": {"norad_id": 35839, "name": "COSMOS 2251 DEB", "group": "cosmos-2251-debris", "lat": -59.54958929366918, "lon": -68.53482882447882, "alt_km": 414.56810708859393, "timestamp": "2025-12-14T05:42:18.859496+00:00", "meta": {"OBJECT_NAME": "COSMOS 2251 DEB", "OBJECT_ID": "1993-036ATM", "EPOCH": "2025-12-13T16:04:04.122624", "MEAN_MOTION": 15.53223591, "ECCENTRICITY": 0.00024291, "INCLINATION": 74.2062, "RA_OF_ASC_NODE": 321.4873, "ARG_OF_PERICENTER": 127.5762, "MEAN_ANOMALY": 232.5675, "EPHEMERIS_TYPE": 0, "CLASSIFICATION_TYPE": "U", "NORAD_CAT_ID": 35839, "ELEMENT_SET_NO": 999, "REV_AT_EPOCH": 88582, "BSTAR": 0.0057314049, "MEAN_MOTION_DOT": 0.00378302, "MEAN_MOTION_DDOT": 0}, "tle": {"line1": "1 35839U 93036ATM 25347.66949216  .00378302  00000+0  57314-2 0  9997", "line2": "2 35839  74.2062 321.4873 0002429 127.5762 232.5675 15.53223591885823"}}, "geometry": {"type": "Point", "coordinates": [-68.53482882447882, -59.54958929366918]}}, {"type": "Feature", "properties": {"norad_id": 35840, "name": "COSMOS 2251 DEB", "group": "cosmos-2251-debris", "lat": -1.5780210171306084, "lon": -24.141524968816842, "alt_km": 814.1633249187489, "timestamp": "2025-12-14T05:42:18.859507+00:00", "meta": {"OBJECT_NAME": "COSMOS 2251 DEB", "OBJECT_ID": "1993-036ATN", "EPOCH": "2025-12-12T04:26:56.474304", "MEAN_MOTION": 14.37821687, "ECCENTRICITY": 0.01162768, "INCLINATION": 73.9307, "RA_OF_ASC_NODE": 159.2062, "ARG_OF_PERICENTER": 61.7798, "MEAN_ANOMALY": 299.5037, "EPHEMERIS_TYPE": 0, "CLASSIFICATION_TYPE": "U", "NORAD_CAT_ID": 35840, "ELEMENT_SET_NO": 999, "REV_AT_EPOCH": 85283, "BSTAR": 0.0026691111, "MEAN_MOTION_DOT": 8.683e-05, "MEAN_MOTION_DDOT": 0}, "tle": {"line1": "1 35840U 93036ATN 25346.18537586  .00008683  00000+0  26691-2 0  9994", "line2": "2 35840  73.9307 159.2062 0116276  61.7798 299.5037 14.37821687852835"}}, "geometry": {"type": "Point", "coordinates": [-24.141524968816842, -1.5780210171306084]}}, {"type": "Feature", "properties": {"norad_id": 35883, "name": "COSMOS 2251 DEB", "group": "cosmos-2251-debris", "lat": -64.53814315920415, "lon": -75.80618927442681, "alt_km": 694.9817883463857, "timestamp": "2025-12-14T05:42:18.859517+00:00", "meta": {"OBJECT_NAME": "COSMOS 2251 DEB", "OBJECT_ID": "1993-036ATW", "EPOCH": "2025-12-13T12:05:57.517152", "MEAN_MOTION": 14.50609959, "ECCENTRICITY": 0.00836491, "INCLINATION": 74.0249, "RA_OF_ASC_NODE": 68.5878, "ARG_OF_PERICENTER": 197.7693, "MEAN_ANOMALY": 181.9893, "EPHEMERIS_TYPE": 0, "CLASSIFICATION_TYPE": "U", "NORAD_CAT_ID": 35883, "ELEMENT_SET_NO": 999, "REV_AT_EPOCH": 62397, "BSTAR": 0.00052354621, "MEAN_MOTION_DOT": 2.119e-05, "MEAN_MOTION_DDOT": 0}, "tle": {"line1": "1 35883U 93036ATW 25347.50413793  .00002119  00000+0  52355-3 0  9996", "line2": "2 35883  74.0249  68.5878 0083649 197.7693 181.9893 14.50609959623973"}}, "geometry": {"type": "Point", "coordinates": [-75.80618927442681, -64.53814315920415]}}, {"type": "Feature", "properties": {"norad_id": 35884, "name": "COSMOS 2251 DEB", "group": "cosmos-2251-debris", "lat": -16.036427774766963, "lon": 158.03279921087693, "alt_km": 791.6811406280167, "timestamp": "2025-12-14T05:42:18.859527+00:00", "meta": {"OBJECT_NAME": "COSMOS 2251 DEB", "OBJECT_ID": "1993-036ATX", "EPOCH": "2025-12-09T17:00:47.209536", "MEAN_MOTION": 14.25629404, "ECCENTRICITY": 0.01087033, "INCLINATION": 73.9912, "RA_OF_ASC_NODE": 341.4952, "ARG_OF_PERICENTER": 129.2859, "MEAN_ANOMALY": 231.7992, "EPHEMERIS_TYPE": 0, "CLASSIFICATION_TYPE": "U", "NORAD_CAT_ID": 35884, "ELEMENT_SET_NO": 999, "REV_AT_EPOCH": 22314, "BSTAR": 0.001725321, "MEAN_MOTION_DOT": 4.326e-05, "MEAN_MOTION_DDOT": 0}, "tle": {"line1": "1 35884U 93036ATX 25343.70887974  .00004326  00000+0  17253-2 0  9990", "line2": "2 35884  73.9912 341.4952 0108703 129.2859 231.7992 14.25629404223146"}}, "geometry": {"type": "Point", "coordinates": [158.03279921087693, -16.036427774766963]}}]}